IRIDIUM 33 DEB          
1 36080U 97051VM  26111.82142268  .00001132  00000+0  30381-3 0  9997
2 36080  86.3162 311.3028 0019377  90.4579 269.8844 14.47196504492955
IRIDIUM 33 DEB          
1 36083U 97051VQ  26115.37065031  .00001313  00000+0  37860-3 0  9996
2 36083  86.3443 336.6253 0027447 140.5610 219.7596 14.43763083873779
IRIDIUM 33 DEB          
1 36390U 97051VU  26107.63836251  .00004176  00000+0  60593-3 0  9996
2 36390  86.2949 241.5792 0030094  93.5912 266.8750 14.75483411681171
IRIDIUM 33 DEB          
1 36483U 97051VZ  26103.96176541  .00000905  00000+0  24684-3 0  9997
2 36483  86.3839   0.1649 0011408  83.0785 277.1715 14.46316988669122
IRIDIUM 33 DEB          
1 36490U 97051WG  26115.81865737  .00009685  00000+0  12842-2 0  9990
2 36490  86.3612 309.8051 0001914   1.7916 358.3311 14.79763901884657
IRIDIUM 33 DEB          
1 36493U 97051WK  26114.79737013  .00004339  00000+0  76667-3 0  9991
2 36493  86.3545 312.4764 0008118 250.9491 109.0844 14.67213826764680
IRIDIUM 33 DEB          
1 36497U 97051WP  26115.47110709  .00005733  00000+0  10368-2 0  9992
2 36497  86.1575 191.4063 0045525  28.0149 332.3499 14.65551792676098
IRIDIUM 33 DEB          
1 37548U 97051XH  26114.35938007  .00001903  00000+0  46025-3 0  9990
2 37548  86.3532 345.6205 0026470 105.7034 254.7095 14.52391145674565
IRIDIUM 33 DEB          
1 37550U 97051XK  26115.31704403  .00005907  00000+0  99487-3 0  9999
2 37550  86.3759 324.5804 0004495  46.6862 313.4728 14.69399580882932
IRIDIUM 33 DEB          
1 37562U 97051XX  26114.39964414  .00002826  00000+0  60928-3 0  9994
2 37562  86.3759 345.7054 0025241  23.2502 100.6173 14.57914896882605
IRIDIUM 33 DEB          
1 37565U 97051YA  26099.33400274  .00001712  00000+0  41706-3 0  9998
2 37565  86.3473 318.3481 0014606  52.1997 308.0529 14.52140920675437
IRIDIUM 33 DEB          
1 38017U 97051YD  26114.95771152  .00005664  00000+0  13172-2 0  9998
2 38017  86.3373 108.0925 0087010  24.4788 336.0510 14.52435147633348
IRIDIUM 33 DEB          
1 38022U 97051YJ  26111.83157768  .00002085  00000+0  61839-3 0  9997
2 38022  86.2662 319.4368 0043819 341.5723  18.3887 14.42362653710684
IRIDIUM 33 DEB          
1 38028U 97051YQ  26115.26848562  .00000672  00000+0  17970-3 0  9990
2 38028  86.3211 302.2159 0029254  42.6223 317.7242 14.46617659674256
IRIDIUM 33 DEB          
1 38228U 97051ZC  26115.41119252  .00000525  00000+0  20078-3 0  9996
2 38228  86.2970 351.6484 0065523 119.2958  60.0617 14.27525729866884
IRIDIUM 33 DEB          
1 38241U 97051ZR  26115.23106215  .00002696  00000+0  61126-3 0  9996
2 38241  86.3177 291.6624 0002781  11.0460 349.0809 14.55789284621423
